0 SCOUT G-1 R/B
1 22699U 93041B   13282.49752419  .00000228  00000-0  89552-4 0  9795
2 22699 089.5275 303.9040 0088306 195.8168 334.2672 14.24270952 53537
0 SCOUT G-1 R/B
1 22699U 93041B   13283.61740997  .00000222  00000-0  87088-4 0  9806
2 22699 089.5273 303.8436 0088466 192.1452 316.3443 14.24271120 53698
0 SCOUT G-1 R/B
1 22699U 93041B   13286.19653505  .00000192  00000-0  74516-4 0  9820
2 22699 089.5268 303.7044 0088809 183.7421 220.4468 14.24272030 54064
0 SCOUT G-1 R/B
1 22699U 93041B   13287.19803067  .00000203  00000-0  78941-4 0  9831
2 22699 089.5266 303.6502 0088930 180.4925 315.4648 14.24272346 54209
0 SCOUT G-1 R/B
1 22699U 93041B   13288.46281271  .00000258  00000-0  10189-3 0  9849
2 22699 089.5265 303.5818 0089069 176.3902 320.4440 14.24273213 54389
0 SCOUT G-1 R/B
1 22699U 93041B   13289.52153397  .00000196  00000-0  75881-4 0  9857
2 22699 089.5265 303.5244 0089227 172.9497 348.8864 14.24273993 54535
0 SCOUT G-1 R/B
1 22699U 93041B   13290.69342380  .00000215  00000-0  83839-4 0  9864
2 22699 089.5266 303.4609 0089370 169.1558 237.5749 14.24274504 54709
0 SCOUT G-1 R/B
1 22699U 93041B   13292.18133054  .00000231  00000-0  90236-4 0  9874
2 22699 089.5267 303.3802 0089531 164.3528 306.5826 14.24274946 54913
0 SCOUT G-1 R/B
1 22699U 93041B   13293.52633304  .00000257  00000-0  10122-3 0  9880
2 22699 089.5268 303.3073 0089666 160.0147 002.8691 14.24275538 55109
0 SCOUT G-1 R/B
1 22699U 93041B   13294.64318828  .00000266  00000-0  10500-3 0  9896
2 22699 089.5268 303.2469 0089784 156.4208 329.3601 14.24276014 55260
0 SCOUT G-1 R/B
1 22699U 93041B   13296.18189241  .00000269  00000-0  10606-3 0  9904
2 22699 089.5268 303.1636 0089921 151.4695 298.8155 14.24276872 55483
